TLE2=2 03597  34.9925 196.5239 0006173 294.4719  65.5328 14.47314543 20889
TLE2=2 03230  74.0292 288.4946 0023452 107.4811 252.8944 15.03333330 91865
TLE2=2 00733  99.1220  95.3149 0032267 220.4671 139.4111 14.34026619240104
TLE2=2 10114  97.5791 253.6899 0006398 231.6618 128.4056 15.45837299670262
TLE2=2 06153  35.0048 226.4058 0007323 263.9043 269.8241 14.60007650848018
TLE2=2 05118  81.2379  36.4685 0013806 231.1684 128.8338 15.62206608990638
TLE2=2 10967 108.0085 151.5096 0002531 279.9935  80.0925 14.46169918508308
TLE2=2 05730  73.8862 152.2387 0547121 116.2220 249.6237 14.38118524657292
TLE2=2 11267  82.5205  84.6421 0016569  21.1682 339.0219 14.91923336530650
TLE2=2 02802  74.0124 324.9132 0064679 328.3838  31.3440 14.45632553 90814
TLE2=2 03669  88.4520 153.9440 1707868  63.9285 312.7362 11.30417602349947
TLE2=2 04327  99.2776  23.7067 0005478 126.0512 352.8644 13.58730929781605
TLE2=2 05560  92.7103 155.8159 0017161  48.5229 311.7447 14.50782275864129
TLE2=2 00877  65.0763 294.3140 0080194 288.2584  70.9801 14.61376605268632
TLE2=2 00694  30.3536 129.6725 0547430 184.3176 175.2559 14.12109735133291
TLE2=2 06155  35.0005 232.8717 0032909 115.1634 245.2485 14.77720538843106
TLE2=2 08459  74.0637 355.8412 0014453  83.8163 276.4638 14.38210924633674
